1 08820U 76039A   03182.98889790  .00000014  00000-0  10000-3 0  9567
2 08820 109.8034 186.6654 0044618 298.3609  61.2561  6.38664480378005
